[{"OBJECT_NAME":"SCS-01 H","OBJECT_ID":"2025-100H","EPOCH":"2026-03-09T23:19:05.376864","MEAN_MOTION":15.31767757,"ECCENTRICITY":0.00071581,"INCLINATION":97.3749,"RA_OF_ASC_NODE":145.8085,"ARG_OF_PERICENTER":277.8492,"MEAN_ANOMALY":82.1937,"EPHEMERIS_TYPE":0,"CLASSIFICATION_TYPE":"U","NORAD_CAT_ID":63989,"ELEMENT_SET_NO":999,"REV_AT_EPOCH":4566,"BSTAR":0.0011436254,"MEAN_MOTION_DOT":0.00035149,"MEAN_MOTION_DDOT":0},{"OBJECT_NAME":"STARLINK-35537","OBJECT_ID":"2025-245A","EPOCH":"2026-03-09T20:26:56.516928","MEAN_MOTION":15.30203977,"ECCENTRICITY":0.00018022,"INCLINATION":53.1582,"RA_OF_ASC_NODE":282.9849,"ARG_OF_PERICENTER":56.6152,"MEAN_ANOMALY":303.5021,"EPHEMERIS_TYPE":0,"CLASSIFICATION_TYPE":"U","NORAD_CAT_ID":66234,"ELEMENT_SET_NO":999,"REV_AT_EPOCH":2128,"BSTAR":0.0011612739,"MEAN_MOTION_DOT":0.00034197,"MEAN_MOTION_DDOT":0}]
